STARLINK-11582 [DTC]    
1 62985U 25031E   26068.19105172  .00210902  00000+0  16031-2 0  9995
2 62985  42.9995   4.4961 0001437 286.0235  74.0474 15.70879794 62668
SILVERSAT               
1 66909U 98067XV  26068.26463686  .00211631  00000+0  15445-2 0  9997
2 66909  51.6252  67.0520 0005527  73.9744 286.1863 15.72057374 15120
