[{"OBJECT_NAME":"STARLINK-11582 [DTC]","OBJECT_ID":"2025-031E","EPOCH":"2026-03-09T04:35:06.868608","MEAN_MOTION":15.70879794,"ECCENTRICITY":0.00014372,"INCLINATION":42.9995,"RA_OF_ASC_NODE":4.4961,"ARG_OF_PERICENTER":286.0235,"MEAN_ANOMALY":74.0474,"EPHEMERIS_TYPE":0,"CLASSIFICATION_TYPE":"U","NORAD_CAT_ID":62985,"ELEMENT_SET_NO":999,"REV_AT_EPOCH":6266,"BSTAR":0.0016030636,"MEAN_MOTION_DOT":0.00210902,"MEAN_MOTION_DDOT":0},{"OBJECT_NAME":"SILVERSAT","OBJECT_ID":"1998-067XV","EPOCH":"2026-03-09T06:21:04.624704","MEAN_MOTION":15.72057374,"ECCENTRICITY":0.00055278,"INCLINATION":51.6252,"RA_OF_ASC_NODE":67.052,"ARG_OF_PERICENTER":73.9744,"MEAN_ANOMALY":286.1863,"EPHEMERIS_TYPE":0,"CLASSIFICATION_TYPE":"U","NORAD_CAT_ID":66909,"ELEMENT_SET_NO":999,"REV_AT_EPOCH":1512,"BSTAR":0.0015444738,"MEAN_MOTION_DOT":0.00211631,"MEAN_MOTION_DDOT":0}]
